HST                     
1 20580U 90037B   26160.25429042  .00004810  00000+0  15014-3 0  9993
2 20580  28.4711 134.7882 0001992  63.4353 296.6447 15.30659901787355
POLAR                   
1 23802U 96013A   26160.33474726  .00000117  00000+0  00000+0 0  9992
2 23802  79.8443 227.1442 6462788 209.3515  89.3681  1.29846146144757
SWAS                    
1 25560U 98071A   26160.52816789  .00003591  00000+0  22938-3 0  9998
2 25560  69.8963 247.2693 0008970 266.8049  93.2088 15.09579057496112
CXO                     
1 25867U 99040B   26161.44248451  .00000667  00000+0  00000+0 0  9995
2 25867  56.0540 116.8503 7852548 310.2578   0.2529  0.37805334 17299
XMM-NEWTON              
1 25989U 99066A   26161.36780906  .00000089  00000+0  00000+0 0  9993
2 25989  64.5271 283.0748 4677764  65.0342   0.0416  0.50122831 22976
TERRA                   
1 25994U 99068A   26160.49316787  .00000338  00000+0  77728-4 0  9999
2 25994  97.9459 210.3443 0001015 224.6888 242.2888 14.61096977408484
CLUSTER II-FM7 (SAMBA)  
1 26410U 00041A   26161.44626665  .00004459  00000+0  00000+0 0  9993
2 26410 149.9132  49.6129 9048191 266.6863 359.9829  0.44840364 20284
CLUSTER II-FM8 (TANGO)  
1 26464U 00045B   26159.43359147  .00004389  00000+0  00000+0 0  9992
2 26464 150.1534  50.2668 9049658 267.1780   3.1902  0.44405778 20277
ODIN                    
1 26702U 01007A   26160.08640460  .00135654  00000+0  97686-3 0  9990
2 26702  97.3859 200.5220 0006524 153.1212 207.0391 15.73146623388125
TIMED                   
1 26998U 01055B   26160.51478751  .00001262  00000+0  11820-3 0  9993
2 26998  74.0679 250.4663 0000682 350.5126   9.6046 14.95278201329674
CORIOLIS                
1 27640U 03001A   26160.51648534  .00000094  00000+0  64730-4 0  9990
2 27640  98.7125 167.5184 0013032 232.1709 127.8288 14.19942780213139
SORCE                   
1 27651U 03004A   26160.10335366  .00002505  00000+0  19008-3 0  9992
2 27651  39.9917 307.7981 0017671 349.7405  10.3026 15.03669281270686
MOST                    
1 27843U 03031D   26160.53803690  .00000067  00000+0  50605-4 0  9992
2 27843  98.7045 168.3708 0008684 275.4668  84.5519 14.21320935189624
SCISAT 1                
1 27858U 03036A   26160.52723866  .00000503  00000+0  68915-4 0  9996
2 27858  73.9286 186.5623 0008681 255.6810 104.3402 14.81440170230311
SWIFT                   
1 28485U 04047A   26160.55267191  .00052094  00000+0  44621-3 0  9992
2 28485  20.5525 243.7614 0002352 173.4015 186.6462 15.67605080185665
HINODE (SOLAR-B)        
1 29479U 06041A   26160.48645121  .00000693  00000+0  12751-3 0  9994
2 29479  98.0549 176.7525 0016353 316.1939  43.7969 14.68612510 53742
SHIJIAN-6 02A (SJ-6 02A)
1 29505U 06046A   26160.63745737  .00008119  00000+0  41582-3 0  9995
2 29505  97.6370 201.6479 0003942 141.8933 218.2579 15.16857713 71120
SHIJIAN-6 02B (SJ-6 02B)
1 29506U 06046B   26160.61523155  .00001559  00000+0  12547-3 0  9992
2 29506  97.7164 189.7206 0014819  82.0402 278.2504 15.01358781 69608
FGRST (GLAST)           
1 33053U 08029A   26160.56754933  .00003116  00000+0  11177-3 0  9990
2 33053  25.5823 257.3887 0007703 234.1461 125.8362 15.23911359994670
SDO                     
1 36395U 10005A   26160.45717389 -.00000063  00000+0  00000+0 0  9999
2 36395  34.6348  86.4608 0001571  53.7612 180.1782  1.00270666 59982
CRYOSAT 2               
1 36508U 10013A   26160.56920097  .00000117  00000+0  28356-4 0  9996
2 36508  92.0349 275.4502 0002215  86.5751 273.5710 14.51896813856974
X-SAT                   
1 37389U 11015C   26160.64334576  .00000101  00000+0  60445-4 0  9995
2 37389  98.3510 138.0265 0014446  10.4441 349.7037 14.25203794786603
GCOM-W1 (SHIZUKU)       
1 38337U 12025A   26160.42003381  .00000418  00000+0  10275-3 0  9990
2 38337  98.2020 101.0934 0001856  80.5804  30.4831 14.57117341747900
NUSTAR                  
1 38358U 12031A   26160.58337963  .00003911  00000+0  18887-3 0  9991
2 38358   6.0267  91.1687 0008204 344.6090  90.3186 15.08735195  1307
NEOSSAT                 
1 39089U 13009D   26160.47430590  .00000135  00000+0  61506-4 0  9999
2 39089  98.4176 340.6906 0009783 269.6435  90.3630 14.35823715695635
BRITE-AUSTRIA           
1 39091U 13009F   26160.47676852  .00000162  00000+0  69668-4 0  9992
2 39091  98.3993 340.1036 0008967 262.5738  97.4429 14.36539039695946
IRIS                    
1 39197U 13033A   26160.55531704  .00000969  00000+0  11710-3 0  9990
2 39197  97.9335 359.8563 0024140 347.4319  12.6291 14.85870096699247
HISAKI (SPRINT-A)       
1 39253U 13049A   26160.54268463  .00000126  00000+0  82607-4 0  9997
2 39253  29.7202 258.8784 0136887 314.9019  44.0512 13.55543891630388
CASSIOPE                
1 39265U 13055A   26160.48446878  .00041911 -57621-6  46184-3 0  9993
2 39265  80.9146  76.0689 0295286  88.2680 275.2346 15.24483794666492
STSAT-3                 
1 39422U 13066G   26160.58845841  .00002542  00000+0  19472-3 0  9992
2 39422  97.6213 130.5990 0011031  64.5653 295.6712 15.02710300683066
SWARM B                 
1 39451U 13067A   26160.60502989  .00003134  00000+0  11177-3 0  9993
2 39451  87.7440 344.6212 0003390  89.8611 270.3026 15.28505491682088
